     2.100          NAVIGATION                              RINEX VERSION / TYPE
fic2rin                                 09/02/2008 02:07:18 PGM / RUN BY / DATE
                                                            END OF HEADER
 6 08  9  1 12  0  0.0  .167500227690D-03 -.454747350886D-12  .000000000000D+00
     .900000000000D+01 -.237500000000D+02  .476912722472D-08 -.663616896890D+00
    -.113248825073D-05  .577502173837D-02  .125709921122D-04  .515372628784D+04
     .129600000000D+06 -.428408384323D-07 -.300548025098D+01  .132247805595D-06
     .934060681274D+00  .125218750000D+03 -.158732296793D+01 -.821069915143D-08
    -.571452374714D-10  .100000000000D+01  .149500000000D+04  .000000000000D+00
     .240000000000D+01  .000000000000D+00 -.465661287308D-08  .900000000000D+01
     .122406000000D+06  .400000000000D+01
 7 08  9  1 12  0  0.0  .138659961522D-04  .306954461848D-11  .000000000000D+00
     .810000000000D+02  .780000000000D+02  .488877506568D-08  .171784486275D+01
     .413507223129D-05  .215223233681D-02  .523030757904D-05  .515369603157D+04
     .129600000000D+06  .856816768646D-07  .122544896578D+01 -.223517417908D-07
     .963410685899D+00  .277718750000D+03  .269923303732D+01 -.839820696189D-08
     .341442793891D-09  .100000000000D+01  .149500000000D+04  .000000000000D+00
     .240000000000D+01  .000000000000D+00 -.107102096081D-07  .810000000000D+02
     .122406000000D+06  .400000000000D+01
 8 08  9  1 12  0  0.0 -.168129336089D-03 -.147792889038D-11  .000000000000D+00
     .380000000000D+02  .673437500000D+02  .439625455022D-08  .927119168635D+00
     .342726707458D-05  .105189468013D-01  .486522912979D-05  .515371849823D+04
     .129600000000D+06  .171363353729D-06  .128026410976D+01  .707805156708D-07
     .984557400802D+00  .292406250000D+03  .289931170118D+01 -.816462580372D-08
     .281083136812D-09  .100000000000D+01  .149500000000D+04  .000000000000D+00
     .340000000000D+01  .000000000000D+00 -.372529029846D-08  .380000000000D+02
     .122406000000D+06  .400000000000D+01
 9 08  9  1 12  0  0.0  .127949751914D-04  .181898940355D-11  .000000000000D+00
     .181000000000D+03  .677500000000D+02  .473305429357D-08  .557746674125D+00
     .364519655704D-05  .201605908806D-01  .692717730999D-05  .515365846825D+04
     .129600000000D+06 -.208616256714D-06  .118946440823D+01  .558793544769D-08
     .972437981785D+00  .255562500000D+03  .143813245073D+01 -.860857286733D-08
     .385373195198D-09  .100000000000D+01  .149500000000D+04  .000000000000D+00
     .240000000000D+01  .000000000000D+00 -.558793544769D-08  .181000000000D+03
     .122406000000D+06  .400000000000D+01
10 08  9  1 12  0  0.0 -.441865995526D-05 -.454747350886D-12  .000000000000D+00
     .770000000000D+02 -.685312500000D+02  .478912805784D-08 -.202083968328D+01
    -.386685132980D-05  .799569243100D-02  .514648854733D-05  .515369166183D+04
     .129600000000D+06  .502914190292D-07 -.843206295864D+00 -.689178705215D-07
     .962079063255D+00  .277937500000D+03  .557808520450D+00 -.829427406124D-08
    -.261796619166D-09  .100000000000D+01  .149500000000D+04  .000000000000D+00
     .485000000000D+01  .000000000000D+00 -.232830643654D-08  .770000000000D+02
     .122406000000D+06  .400000000000D+01
11 08  9  1 12  0  0.0  .206339173019D-04 -.795807864051D-12  .000000000000D+00
     .600000000000D+01  .943750000000D+02  .615239912926D-08  .137057949910D+01
     .494346022606D-05  .840634491760D-02  .715628266335D-05  .515365025711D+04
     .129600000000D+06 -.115483999252D-06 -.211294313595D+01  .856816768646D-07
     .890569708192D+00  .204218750000D+03  .607089222972D+00 -.904073372571D-08
     .356800576462D-09  .100000000000D+01  .149500000000D+04  .000000000000D+00
     .240000000000D+01  .000000000000D+00 -.116415321827D-07  .600000000000D+01
     .122406000000D+06  .400000000000D+01
12 08  9  1 12  0  0.0 -.352614559233D-03  .136424205266D-11  .000000000000D+00
     .790000000000D+02 -.694062500000D+02  .486163107788D-08  .180199464632D+01
    -.362284481525D-05  .317754352000D-02  .464171171188D-05  .515353101158D+04
     .129600000000D+06  .689178705215D-07  .227598145720D+01  .409781932831D-07
     .964636611250D+00  .288437500000D+03 -.861383782995D+00 -.833534720067D-08
    -.550737226130D-09  .100000000000D+01  .149500000000D+04  .000000000000D+00
     .240000000000D+01  .000000000000D+00 -.116415321827D-07  .790000000000D+02
     .122406000000D+06  .400000000000D+01
13 08  9  1 12  0  0.0  .269657466561D-03  .125055521494D-11  .000000000000D+00
     .620000000000D+02  .136875000000D+02  .362300805569D-08 -.237605440772D+01
     .704079866409D-06  .373190885875D-02  .128019601107D-04  .515358755302D+04
     .129600000000D+06  .465661287308D-07  .228083345615D+00  .558793544769D-07
     .995797376375D+00  .151437500000D+03  .154316683818D+01 -.743709549917D-08
     .109290266664D-09  .100000000000D+01  .149500000000D+04  .000000000000D+00
     .240000000000D+01  .000000000000D+00 -.111758708954D-07  .620000000000D+02
     .122406000000D+06  .400000000000D+01
14 08  9  1 12  0  0.0 -.225142110139D-03  .454747350886D-11  .000000000000D+00
     .780000000000D+02 -.133750000000D+02  .368265339730D-08 -.258925577445D+01
    -.691041350365D-06  .410696968902D-02  .128149986267D-04  .515373200226D+04
     .129600000000D+06  .819563865662D-07  .210226160009D+00 -.540167093277D-07
     .989480750656D+00  .146750000000D+03 -.218729966899D+01 -.748781189742D-08
     .435732435719D-10  .100000000000D+01  .149500000000D+04  .000000000000D+00
     .240000000000D+01  .000000000000D+00 -.884756445885D-08  .780000000000D+02
     .122406000000D+06  .400000000000D+01
15 08  9  1 12  0  0.0 -.169865321368D-03 -.648014975013D-11  .000000000000D+00
     .330000000000D+02 -.134062500000D+02  .443304179684D-08 -.171084541270D+01
    -.553205609322D-06  .827711308375D-03  .134706497192D-04  .515369890213D+04
     .129600000000D+06 -.149011611938D-07  .166186616054D+00  .186264514923D-08
     .957775105600D+00  .118875000000D+03 -.120483254844D+01 -.788282835144D-08
     .464305054455D-11  .100000000000D+01  .149500000000D+04  .000000000000D+00
     .240000000000D+01  .000000000000D+00 -.977888703346D-08  .330000000000D+02
     .122406000000D+06  .400000000000D+01
16 08  9  1 12  0  0.0  .109250657260D-03 -.193267624127D-11  .000000000000D+00
     .290000000000D+02 -.743125000000D+02  .469448125827D-08 -.791006423701D+00
    -.382028520107D-05  .473619077820D-02  .485777854919D-05  .515365815163D+04
     .129600000000D+06 -.130385160446D-07  .229251331218D+01 -.931322574615D-07
     .966279795946D+00  .290781250000D+03 -.408047797286D+00 -.834070456668D-08
    -.447518640948D-09  .100000000000D+01  .149500000000D+04  .000000000000D+00
     .240000000000D+01  .000000000000D+00 -.977888703346D-08  .290000000000D+02
     .122406000000D+06  .400000000000D+01
17 08  9  1 12  0  0.0  .388696789742D-04  .000000000000D+00  .000000000000D+00
     .730000000000D+02 -.296875000000D+01  .405516891406D-08 -.198304981021D+01
    -.279396772385D-07  .379117496777D-02  .132471323013D-04  .515359509850D+04
     .129600000000D+06 -.558793544769D-07 -.294965458756D+01 -.484287738800D-07
     .960129790745D+00  .124031250000D+03 -.278071970581D+01 -.770567811528D-08
    -.339299847486D-10  .100000000000D+01  .149500000000D+04  .000000000000D+00
     .340000000000D+01  .000000000000D+00 -.102445483208D-07  .730000000000D+02
     .122406000000D+06  .400000000000D+01
18 08  9  1 12  0  0.0 -.138657633215D-03  .409272615798D-11  .000000000000D+00
     .270000000000D+02 -.635937500000D+02  .527271962994D-08 -.624579409245D+00
    -.309757888317D-05  .983250339050D-02  .459887087345D-05  .515370793152D+04
     .129600000000D+06  .113621354103D-06 -.833716220473D+00  .184401869774D-06
     .946164629932D+00  .282343750000D+03 -.247207068495D+01 -.870214819369D-08
    -.303584074067D-09  .100000000000D+01  .149500000000D+04  .000000000000D+00
     .240000000000D+01  .000000000000D+00 -.107102096081D-07  .270000000000D+02
     .122406000000D+06  .400000000000D+01
19 08  9  1 12  0  0.0  .351634807885D-04  .227373675443D-12  .000000000000D+00
     .660000000000D+02  .506250000000D+01  .415481592190D-08 -.247269956417D+01
     .288709998131D-06  .489763577934D-02  .126641243696D-04  .515373747826D+04
     .129600000000D+06 -.428408384323D-07 -.289286822584D+01  .763684511185D-07
     .957882020042D+00  .135187500000D+03 -.511247467486D+00 -.782496879850D-08
    -.142863093678D-11  .100000000000D+01  .149500000000D+04  .000000000000D+00
     .240000000000D+01  .000000000000D+00 -.144354999065D-07  .660000000000D+02
     .122406000000D+06  .400000000000D+01
20 08  9  1 12  0  0.0  .105856452137D-03 -.102318153949D-11  .000000000000D+00
     .610000000000D+02 -.610000000000D+02  .521200281512D-08 -.570312858083D+00
    -.319629907608D-05  .352542486507D-02  .474415719509D-05  .515377828217D+04
     .129600000000D+06 -.353902578354D-07 -.887386227290D+00  .931322574615D-08
     .945659934898D+00  .285718750000D+03  .137179293113D+01 -.862035907256D-08
    -.281797452281D-09  .100000000000D+01  .149500000000D+04  .000000000000D+00
     .240000000000D+01  .000000000000D+00 -.651925802231D-08  .610000000000D+02
     .122406000000D+06  .400000000000D+01
21 08  9  1 12  0  0.0  .522905029356D-04 -.147792889038D-11  .000000000000D+00
     .570000000000D+02  .797500000000D+02  .529343477852D-08  .568368944242D+00
     .432319939137D-05  .142547400901D-01  .564940273762D-05  .515368870926D+04
     .129600000000D+06 -.372529029846D-08 -.189262122613D+01  .294297933578D-06
     .935329219965D+00  .256500000000D+03 -.268176259166D+01 -.871643450306D-08
     .425732019162D-09  .100000000000D+01  .149500000000D+04  .000000000000D+00
     .240000000000D+01  .000000000000D+00 -.116415321827D-07  .570000000000D+02
     .122406000000D+06  .400000000000D+01
